{"type": "FeatureCollection", "features": [ {"type": "Feature", "properties": {"norad_id": 66386, "name": "STARLINK-35651", "group": "last-30-days", "lat": -48.96008883232003, "lon": -175.98612775280085, "alt_km": 453.1461225481744, "timestamp": "2025-12-04T05:42:42.156990+00:00", "meta": {"OBJECT_NAME": "STARLINK-35651", "OBJECT_ID": "2025-257G", "EPOCH": "2025-12-03T22:00:03.000096", "MEAN_MOTION": 15.40617073, "ECCENTRICITY": 0.00016969, "INCLINATION": 53.1598, "RA_OF_ASC_NODE": 306.0728, "ARG_OF_PERICENTER": 76.1221, "MEAN_ANOMALY": 191.9927, "EPHEMERIS_TYPE": 0, "CLASSIFICATION_TYPE": "U", "NORAD_CAT_ID": 66386, "ELEMENT_SET_NO": 999, "REV_AT_EPOCH": 507, "BSTAR": -0.03796438, "MEAN_MOTION_DOT": -0.0142559, "MEAN_MOTION_DDOT": 0}, "tle": {"line1": "1 66386U 25257G   25337.91670139 -.01425590  00000+0 -37964-1 0  9993", "line2": "2 66386  53.1598 306.0728 0001696  76.1221 191.9927 15.40617073  5073"}}, "geometry": {"type": "Point", "coordinates": [-175.98612775280085, -48.96008883232003]}}, {"type": "Feature", "properties": {"norad_id": 66387, "name": "STARLINK-35661", "group": "last-30-days", "lat": -49.674329199313604, "lon": -173.41044229188097, "alt_km": 453.0124766068848, "timestamp": "2025-12-04T05:42:42.157000+00:00", "meta": {"OBJECT_NAME": "STARLINK-35661", "OBJECT_ID": "2025-257H", "EPOCH": "2025-12-03T22:00:03.000096", "MEAN_MOTION": 15.40632226, "ECCENTRICITY": 0.00013275, "INCLINATION": 53.1597, "RA_OF_ASC_NODE": 306.069, "ARG_OF_PERICENTER": 91.635, "MEAN_ANOMALY": 178.3274, "EPHEMERIS_TYPE": 0, "CLASSIFICATION_TYPE": "U", "NORAD_CAT_ID": 66387, "ELEMENT_SET_NO": 999, "REV_AT_EPOCH": 507, "BSTAR": -0.040460725, "MEAN_MOTION_DOT": -0.01510912, "MEAN_MOTION_DDOT": 0}, "tle": {"line1": "1 66387U 25257H   25337.91670139 -.01510912  00000+0 -40461-1 0  9993", "line2": "2 66387  53.1597 306.0690 0001327  91.6350 178.3274 15.40632226  5078"}}, "geometry": {"type": "Point", "coordinates": [-173.41044229188097, -49.674329199313604]}}, {"type": "Feature", "properties": {"norad_id": 66388, "name": "STARLINK-35647", "group": "last-30-days", "lat": -52.99775076419689, "lon": -139.66664816240163, "alt_km": 445.5188385569427, "timestamp": "2025-12-04T05:42:42.157011+00:00", "meta": {"OBJECT_NAME": "STARLINK-35647", "OBJECT_ID": "2025-257J", "EPOCH": "2025-12-03T22:00:03.000096", "MEAN_MOTION": 15.43645387, "ECCENTRICITY": 0.00015621, "INCLINATION": 53.1596, "RA_OF_ASC_NODE": 306.0333, "ARG_OF_PERICENTER": 103.4349, "MEAN_ANOMALY": 184.4625, "EPHEMERIS_TYPE": 0, "CLASSIFICATION_TYPE": "U", "NORAD_CAT_ID": 66388, "ELEMENT_SET_NO": 999, "REV_AT_EPOCH": 507, "BSTAR": -0.049721741, "MEAN_MOTION_DOT": -0.0202527, "MEAN_MOTION_DDOT": 0}, "tle": {"line1": "1 66388U 25257J   25337.91670139 -.02025270  00000+0 -49722-1 0  9992", "line2": "2 66388  53.1596 306.0333 0001562 103.4349 184.4625 15.43645387  5076"}}, "geometry": {"type": "Point", "coordinates": [-139.66664816240163, -52.99775076419689]}}, {"type": "Feature", "properties": {"norad_id": 66389, "name": "STARLINK-35694", "group": "last-30-days", "lat": -46.294045151844614, "lon": -107.19828439116044, "alt_km": 424.70908068061544, "timestamp": "2025-12-04T05:42:42.157021+00:00", "meta": {"OBJECT_NAME": "STARLINK-35694", "OBJECT_ID": "2025-257K", "EPOCH": "2025-12-03T09:51:45.959040", "MEAN_MOTION": 15.49244836, "ECCENTRICITY": 0.00018355, "INCLINATION": 53.159, "RA_OF_ASC_NODE": 308.4226, "ARG_OF_PERICENTER": 114.7525, "MEAN_ANOMALY": 245.3675, "EPHEMERIS_TYPE": 0, "CLASSIFICATION_TYPE": "U", "NORAD_CAT_ID": 66389, "ELEMENT_SET_NO": 999, "REV_AT_EPOCH": 493, "BSTAR": 0.00034877553, "MEAN_MOTION_DOT": 0.00018953, "MEAN_MOTION_DDOT": 0}, "tle": {"line1": "1 66389U 25257K   25337.41094860  .00018953  00000+0  34878-3 0  9993", "line2": "2 66389  53.1590 308.4226 0001835 114.7525 245.3675 15.49244836  4938"}}, "geometry": {"type": "Point", "coordinates": [-107.19828439116044, -46.294045151844614]}}, {"type": "Feature", "properties": {"norad_id": 66390, "name": "STARLINK-35665", "group": "last-30-days", "lat": -23.545197287271566, "lon": -74.67303130591353, "alt_km": 422.24029701272775, "timestamp": "2025-12-04T05:42:42.157031+00:00", "meta": {"OBJECT_NAME": "STARLINK-35665", "OBJECT_ID": "2025-257L", "EPOCH": "2025-12-03T22:05:59.946144", "MEAN_MOTION": 15.49349961, "ECCENTRICITY": 0.00013135, "INCLINATION": 53.1591, "RA_OF_ASC_NODE": 305.9128, "ARG_OF_PERICENTER": 91.1298, "MEAN_ANOMALY": 268.9861, "EPHEMERIS_TYPE": 0, "CLASSIFICATION_TYPE": "U", "NORAD_CAT_ID": 66390, "ELEMENT_SET_NO": 999, "REV_AT_EPOCH": 511, "BSTAR": 0.0022494957, "MEAN_MOTION_DOT": 0.00126894, "MEAN_MOTION_DDOT": 0}, "tle": {"line1": "1 66390U 25257L   25337.92083271  .00126894  00000+0  22495-2 0  9990", "line2": "2 66390  53.1591 305.9128 0001313  91.1298 268.9861 15.49349961  5114"}}, "geometry": {"type": "Point", "coordinates": [-74.67303130591353, -23.545197287271566]}}, {"type": "Feature", "properties": {"norad_id": 66391, "name": "STARLINK-35656", "group": "last-30-days", "lat": -42.78840900856301, "lon": -99.50396577661226, "alt_km": 452.7148968756492, "timestamp": "2025-12-04T05:42:42.157041+00:00", "meta": {"OBJECT_NAME": "STARLINK-35656", "OBJECT_ID": "2025-257M", "EPOCH": "2025-12-03T22:00:03.000096", "MEAN_MOTION": 15.39638258, "ECCENTRICITY": 0.00015344, "INCLINATION": 53.1601, "RA_OF_ASC_NODE": 305.9548, "ARG_OF_PERICENTER": 92.8644, "MEAN_ANOMALY": 227.3212, "EPHEMERIS_TYPE": 0, "CLASSIFICATION_TYPE": "U", "NORAD_CAT_ID": 66391, "ELEMENT_SET_NO": 999, "REV_AT_EPOCH": 517, "BSTAR": -0.001473746, "MEAN_MOTION_DOT": -0.0005893, "MEAN_MOTION_DDOT": 0}, "tle": {"line1": "1 66391U 25257M   25337.91670139 -.00058930  00000+0 -14737-2 0  9992", "line2": "2 66391  53.1601 305.9548 0001534  92.8644 227.3212 15.39638258  5175"}}, "geometry": {"type": "Point", "coordinates": [-99.50396577661226, -42.78840900856301]}}, {"type": "Feature", "properties": {"norad_id": 66392, "name": "STARLINK-35671", "group": "last-30-days", "lat": -52.68529638253175, "lon": -135.11545333388102, "alt_km": 446.9917143341527, "timestamp": "2025-12-04T05:42:42.157051+00:00", "meta": {"OBJECT_NAME": "STARLINK-35671", "OBJECT_ID": "2025-257N", "EPOCH": "2025-12-03T22:00:03.000096", "MEAN_MOTION": 15.4313651, "ECCENTRICITY": 0.00015376, "INCLINATION": 53.1596, "RA_OF_ASC_NODE": 306.0255, "ARG_OF_PERICENTER": 105.743, "MEAN_ANOMALY": 185.5184, "EPHEMERIS_TYPE": 0, "CLASSIFICATION_TYPE": "U", "NORAD_CAT_ID": 66392, "ELEMENT_SET_NO": 999, "REV_AT_EPOCH": 507, "BSTAR": -0.050510661, "MEAN_MOTION_DOT": -0.0202238, "MEAN_MOTION_DDOT": 0}, "tle": {"line1": "1 66392U 25257N   25337.91670139 -.02022380  00000+0 -50511-1 0  9994", "line2": "2 66392  53.1596 306.0255 0001537 105.7430 185.5184 15.43136510  5077"}}, "geometry": {"type": "Point", "coordinates": [-135.11545333388102, -52.68529638253175]}}, {"type": "Feature", "properties": {"norad_id": 66393, "name": "STARLINK-35652", "group": "last-30-days", "lat": -45.17412779711268, "lon": -104.50158974260212, "alt_km": 423.65194805627834, "timestamp": "2025-12-04T05:42:42.157070+00:00", "meta": {"OBJECT_NAME": "STARLINK-35652", "OBJECT_ID": "2025-257P", "EPOCH": "2025-12-03T20:41:30.704352", "MEAN_MOTION": 15.49357934, "ECCENTRICITY": 0.00013704, "INCLINATION": 53.1591, "RA_OF_ASC_NODE": 306.2619, "ARG_OF_PERICENTER": 84.1138, "MEAN_ANOMALY": 276.0027, "EPHEMERIS_TYPE": 0, "CLASSIFICATION_TYPE": "U", "NORAD_CAT_ID": 66393, "ELEMENT_SET_NO": 999, "REV_AT_EPOCH": 500, "BSTAR": 0.0025489897, "MEAN_MOTION_DOT": 0.00144211, "MEAN_MOTION_DDOT": 0}, "tle": {"line1": "1 66393U 25257P   25337.86216093  .00144211  00000+0  25490-2 0  9997", "line2": "2 66393  53.1591 306.2619 0001370  84.1138 276.0027 15.49357934  5005"}}, "geometry": {"type": "Point", "coordinates": [-104.50158974260212, -45.17412779711268]}}, {"type": "Feature", "properties": {"norad_id": 66394, "name": "STARLINK-35672", "group": "last-30-days", "lat": -43.064999718357356, "lon": -100.03070470051027, "alt_km": 423.6550855676196, "timestamp": "2025-12-04T05:42:42.157081+00:00", "meta": {"OBJECT_NAME": "STARLINK-35672", "OBJECT_ID": "2025-257Q", "EPOCH": "2025-12-03T20:40:31.499616", "MEAN_MOTION": 15.49371399, "ECCENTRICITY": 0.00014273, "INCLINATION": 53.1591, "RA_OF_ASC_NODE": 306.2569, "ARG_OF_PERICENTER": 102.9892, "MEAN_ANOMALY": 257.1277, "EPHEMERIS_TYPE": 0, "CLASSIFICATION_TYPE": "U", "NORAD_CAT_ID": 66394, "ELEMENT_SET_NO": 999, "REV_AT_EPOCH": 500, "BSTAR": 0.002691073, "MEAN_MOTION_DOT": 0.0015251, "MEAN_MOTION_DDOT": 0}, "tle": {"line1": "1 66394U 25257Q   25337.86147569  .00152510  00000+0  26911-2 0  9999", "line2": "2 66394  53.1591 306.2569 0001427 102.9892 257.1277 15.49371399  5007"}}, "geometry": {"type": "Point", "coordinates": [-100.03070470051027, -43.064999718357356]}}, {"type": "Feature", "properties": {"norad_id": 66395, "name": "STARLINK-35681", "group": "last-30-days", "lat": -41.910262351609326, "lon": -97.84294081268682, "alt_km": 423.14728236097653, "timestamp": "2025-12-04T05:42:42.157092+00:00", "meta": {"OBJECT_NAME": "STARLINK-35681", "OBJECT_ID": "2025-257R", "EPOCH": "2025-12-03T20:40:01.869600", "MEAN_MOTION": 15.49405175, "ECCENTRICITY": 0.00010828, "INCLINATION": 53.1592, "RA_OF_ASC_NODE": 306.255, "ARG_OF_PERICENTER": 105.6339, "MEAN_ANOMALY": 254.479, "EPHEMERIS_TYPE": 0, "CLASSIFICATION_TYPE": "U", "NORAD_CAT_ID": 66395, "ELEMENT_SET_NO": 999, "REV_AT_EPOCH": 493, "BSTAR": 0.0038009398, "MEAN_MOTION_DOT": 0.00217676, "MEAN_MOTION_DDOT": 0}, "tle": {"line1": "1 66395U 25257R   25337.86113275  .00217676  00000+0  38009-2 0  9993", "line2": "2 66395  53.1592 306.2550 0001082 105.6339 254.4790 15.49405175  4933"}}, "geometry": {"type": "Point", "coordinates": [-97.84294081268682, -41.910262351609326]}}]}